OBJECT_NAME,OBJECT_ID,EPOCH,MEAN_MOTION,ECCENTRICITY,INCLINATION,RA_OF_ASC_NODE,ARG_OF_PERICENTER,MEAN_ANOMALY,EPHEMERIS_TYPE,CLASSIFICATION_TYPE,NORAD_CAT_ID,ELEMENT_SET_NO,REV_AT_EPOCH,BSTAR,MEAN_MOTION_DOT,MEAN_MOTION_DDOT
STARLINK-30910,2023-178C,2026-07-12T05:45:58.457088,15.34476625,.0000811,53.1567,140.2184,51.4534,308.6541,0,U,58376,999,14899,-.89517E-3,-.30572E-3,0
STARLINK-30914,2023-178D,2026-07-12T05:33:59.991840,15.34392196,.0001707,53.1604,140.1483,78.7312,281.3883,0,U,58377,999,14899,-.29066E-5,-.475E-5,0
STARLINK-30920,2023-178E,2026-07-13T04:00:01.998720,15.33538899,.0001681,53.1589,125.5952,87.7826,181.7693,0,U,58378,999,554,.71365E-3,.23163E-3,0
STARLINK-30882,2023-178F,2026-07-12T20:17:33.035136,15.34386563,.0000874,53.1623,137.5934,94.8683,265.2419,0,U,58379,999,14908,-.2909E-4,-.1358E-4,0
STARLINK-30915,2023-178G,2026-07-12T23:35:26.458368,15.34406431,.0001343,53.1595,48.3489,91.7660,268.3496,0,U,58380,999,15031,.41364E-4,.1022E-4,0
STARLINK-30923,2023-178H,2026-07-13T00:12:27.645984,15.35159355,.0003172,53.1580,137.1528,60.1168,300.0149,0,U,58381,999,14903,.38842E-3,.13089E-3,0
STARLINK-30927,2023-178J,2026-07-12T06:25:30.215712,15.34387793,.0001515,53.1594,140.3825,80.6512,279.4661,0,U,58382,999,14897,.86593E-5,-.84E-6,0
STARLINK-30921,2023-178K,2026-07-12T23:16:02.704800,15.34387167,.0001324,53.1580,136.9435,88.8667,271.2487,0,U,58383,999,14908,.18099E-3,.5741E-4,0
STARLINK-30825,2023-178L,2026-07-13T00:22:34.044384,15.34396553,.0001164,53.1613,136.4956,76.9395,283.1738,0,U,58384,999,14911,.26369E-4,.515E-5,0
STARLINK-30930,2023-178M,2026-07-12T06:43:33.123072,15.34389904,.0000787,53.1572,139.7546,80.4592,279.6499,0,U,58385,999,14887,.16122283E-4,.169E-5,0
STARLINK-30929,2023-178N,2026-07-13T00:04:29.875584,15.34388450,.0001347,53.1581,136.9466,91.1322,268.9835,0,U,58386,999,14908,-.15164E-4,-.888E-5,0
STARLINK-30898,2023-178P,2026-07-12T23:52:21.787104,15.34390744,.000109,53.1591,136.9708,77.6349,282.4776,0,U,58387,999,14910,-.29834E-4,-.1384E-4,0
STARLINK-30913,2023-178Q,2026-07-12T20:23:35.814912,15.34396753,.0001674,53.1600,137.6175,102.7365,257.3824,0,U,58388,999,14908,.12494E-4,.46E-6,0
STARLINK-30938,2023-178R,2026-07-12T20:18:14.097600,15.34394559,.0000826,53.1590,139.0080,114.9733,245.1355,0,U,58389,999,14906,.29259E-4,.613E-5,0
STARLINK-30868,2023-178S,2026-07-12T06:10:20.555904,15.34394608,.0001271,53.1576,140.3184,90.3106,269.8042,0,U,58390,999,14899,.78141E-5,-.112E-5,0
STARLINK-30916,2023-178T,2026-07-12T20:35:42.012096,15.34388230,.0001381,53.1581,137.5676,77.6873,282.4284,0,U,58391,999,14908,.47052E-4,.1213E-4,0
STARLINK-30939,2023-178V,2026-07-12T23:06:57.441312,15.34392923,.0001454,53.1578,136.9033,80.4554,279.6613,0,U,58393,999,14897,.37041E-4,.875E-5,0
STARLINK-30887,2023-178W,2026-07-12T23:58:25.722912,15.34396683,.000124,53.1588,136.9480,84.2816,275.8328,0,U,58394,999,14908,.58738E-4,.1609E-4,0
STARLINK-30934,2023-178X,2026-07-12T20:20:35.144736,15.34383594,.0001588,53.1586,137.6772,107.8670,252.2506,0,U,58395,999,14901,-.34377E-5,-.493E-5,0
STARLINK-30964,2023-180A,2026-07-13T00:26:02.415264,15.27576044,.0001261,43.0023,64.7409,276.5742,83.4967,0,U,58402,999,14679,.54386E-5,-.112E-5,0
STARLINK-30844,2023-180B,2026-07-11T23:54:41.519232,15.27579569,.00016631,43.0034,70.8342,270.7917,89.2744,0,U,58403,999,14651,-.15390546E-4,-.686E-5,0
STARLINK-30876,2023-180C,2026-07-12T01:23:17.962656,15.27575422,.00017275,43.0040,70.4336,257.7508,102.3150,0,U,58404,999,14664,.7059729E-4,.1681E-4,0
STARLINK-30952,2023-180D,2026-07-12T23:06:41.612832,15.27571796,.000079,43.0027,65.1870,259.8773,100.1989,0,U,58405,999,14667,-.52618E-4,-.1709E-4,0
STARLINK-30925,2023-180E,2026-07-12T01:12:11.993184,15.27578881,.00014676,43.0048,70.3747,270.9276,89.1408,0,U,58406,999,14652,.84468702E-4,.2063E-4,0
STARLINK-30954,2023-180F,2026-07-13T00:16:47.030880,15.27571796,.0001286,42.9994,64.6918,260.6908,99.3799,0,U,58407,999,14679,-.66404E-4,-.2088E-4,0
STARLINK-30906,2023-180G,2026-07-12T22:14:19.727808,15.27582059,.0001651,43.0029,69.0107,254.4877,105.5792,0,U,58408,999,14662,.19296E-4,.269E-5,0
STARLINK-30940,2023-180H,2026-07-12T06:20:48.815232,15.27585918,.0001563,42.9982,283.9313,252.5291,107.5389,0,U,58409,999,14838,.25178E-4,.431E-5,0
STARLINK-30933,2023-180J,2026-07-12T14:28:02.508384,15.27576164,.0001675,43.0037,281.3065,290.0215,70.0456,0,U,58410,999,14844,-.54384E-4,-.1758E-4,0
STARLINK-30919,2023-180K,2026-07-12T23:47:09.768192,15.27583249,.0001042,42.9998,64.4600,282.6348,77.4387,0,U,58411,999,14669,.68956E-4,.1636E-4,0
STARLINK-30924,2023-180L,2026-07-13T04:00:01.998720,15.54582971,.0018489,42.9930,261.8410,34.9909,98.5576,0,U,58412,999,595,.29094E-2,.203403E-2,0
