STARLINK-30910          
1 58376U 23178C   26193.24025992 -.00030572  00000+0 -89517-3 0  9995
2 58376  53.1567 140.2184 0000811  51.4534 308.6541 15.34476625148991
STARLINK-30914          
1 58377U 23178D   26193.23194435 -.00000475  00000+0 -29066-5 0  9998
2 58377  53.1604 140.1483 0001707  78.7312 281.3883 15.34392196148992
STARLINK-30920          
1 58378U 23178E   26194.16668980  .00023163  00000+0  71365-3 0  9997
2 58378  53.1589 125.5952 0001681  87.7826 181.7693 15.33538899  5540
STARLINK-30882          
1 58379U 23178F   26193.84552124 -.00001358  00000+0 -29090-4 0  9997
2 58379  53.1623 137.5934 0000874  94.8683 265.2419 15.34386563149088
STARLINK-30915          
1 58380U 23178G   26193.98294512  .00001022  00000+0  41364-4 0  9992
2 58380  53.1595  48.3489 0001343  91.7660 268.3496 15.34406431150319
STARLINK-30923          
1 58381U 23178H   26194.00865331  .00013089  00000+0  38842-3 0  9992
2 58381  53.1580 137.1528 0003172  60.1168 300.0149 15.35159355149037
STARLINK-30927          
1 58382U 23178J   26193.26771083 -.00000084  00000+0  86593-5 0  9990
2 58382  53.1594 140.3825 0001515  80.6512 279.4661 15.34387793148976
STARLINK-30921          
1 58383U 23178K   26193.96947575  .00005741  00000+0  18099-3 0  9997
2 58383  53.1580 136.9435 0001324  88.8667 271.2487 15.34387167149083
STARLINK-30825          
1 58384U 23178L   26194.01567181  .00000515  00000+0  26369-4 0  9990
2 58384  53.1613 136.4956 0001164  76.9395 283.1738 15.34396553149116
STARLINK-30930          
1 58385U 23178M   26193.28024448  .00000169  00000+0  16122-4 0  9994
2 58385  53.1572 139.7546 0000787  80.4592 279.6499 15.34389904148879
STARLINK-30929          
1 58386U 23178N   26194.00312356 -.00000888  00000+0 -15164-4 0  9999
2 58386  53.1581 136.9466 0001347  91.1322 268.9835 15.34388450149087
STARLINK-30898          
1 58387U 23178P   26193.99469661 -.00001384  00000+0 -29834-4 0  9990
2 58387  53.1591 136.9708 0001090  77.6349 282.4776 15.34390744149108
STARLINK-30913          
1 58388U 23178Q   26193.84972008  .00000046  00000+0  12494-4 0  9995
2 58388  53.1600 137.6175 0001674 102.7365 257.3824 15.34396753149080
STARLINK-30938          
1 58389U 23178R   26193.84599650  .00000613  00000+0  29259-4 0  9991
2 58389  53.1590 139.0080 0000826 114.9733 245.1355 15.34394559149066
STARLINK-30868          
1 58390U 23178S   26193.25718236 -.00000112  00000+0  78141-5 0  9991
2 58390  53.1576 140.3184 0001271  90.3106 269.8042 15.34394608148990
STARLINK-30916          
1 58391U 23178T   26193.85812514  .00001213  00000+0  47052-4 0  9990
2 58391  53.1581 137.5676 0001381  77.6873 282.4284 15.34388230149086
STARLINK-30939          
1 58393U 23178V   26193.96316483  .00000875  00000+0  37041-4 0  9998
2 58393  53.1578 136.9033 0001454  80.4554 279.6613 15.34392923148978
STARLINK-30887          
1 58394U 23178W   26193.99890883  .00001609  00000+0  58738-4 0  9995
2 58394  53.1588 136.9480 0001240  84.2816 275.8328 15.34396683149083
STARLINK-30934          
1 58395U 23178X   26193.84762899 -.00000493  00000+0 -34377-5 0  9991
2 58395  53.1586 137.6772 0001588 107.8670 252.2506 15.34383594149016
STARLINK-30964          
1 58402U 23180A   26194.01808351 -.00000112  00000+0  54386-5 0  9996
2 58402  43.0023  64.7409 0001261 276.5742  83.4967 15.27576044146791
STARLINK-30844          
1 58403U 23180B   26192.99631388 -.00000686  00000+0 -15391-4 0  9995
2 58403  43.0034  70.8342 0001663 270.7917  89.2744 15.27579569146516
STARLINK-30876          
1 58404U 23180C   26193.05784679  .00001681  00000+0  70597-4 0  9999
2 58404  43.0040  70.4336 0001727 257.7508 102.3150 15.27575422146641
STARLINK-30952          
1 58405U 23180D   26193.96298163 -.00001709  00000+0 -52618-4 0  9995
2 58405  43.0027  65.1870 0000790 259.8773 100.1989 15.27571796146676
STARLINK-30925          
1 58406U 23180E   26193.05013881  .00002063  00000+0  84469-4 0  9999
2 58406  43.0048  70.3747 0001467 270.9276  89.1408 15.27578881146523
STARLINK-30954          
1 58407U 23180F   26194.01165545 -.00002088  00000+0 -66404-4 0  9990
2 58407  42.9994  64.6918 0001286 260.6908  99.3799 15.27571796146798
STARLINK-30906          
1 58408U 23180G   26193.92661722  .00000269  00000+0  19296-4 0  9992
2 58408  43.0029  69.0107 0001651 254.4877 105.5792 15.27582059146620
STARLINK-30940          
1 58409U 23180H   26193.26445388  .00000431  00000+0  25178-4 0  9995
2 58409  42.9982 283.9313 0001563 252.5291 107.5389 15.27585918148380
STARLINK-30933          
1 58410U 23180J   26193.60280681 -.00001758  00000+0 -54384-4 0  9994
2 58410  43.0037 281.3065 0001675 290.0215  70.0456 15.27576164148447
STARLINK-30919          
1 58411U 23180K   26193.99108528  .00001636  00000+0  68956-4 0  9999
2 58411  42.9998  64.4600 0001042 282.6348  77.4387 15.27583249146690
STARLINK-30924          
1 58412U 23180L   26194.16668980  .00203403  00000+0  29094-2 0  9997
2 58412  42.9930 261.8410 0018489  34.9909  98.5576 15.54582971  5951
